start=new Date('2022-01-06T00:00:00.000Z').valueOf();
sats=[{"ELEMENT_SET_NO":"999","ECCENTRICITY":"0.00019090","FILE":"3265018","OBJECT_TYPE":"PAYLOAD","EPOCH":"2022-01-05T21:05:56.720544","TLE_LINE2":"2 46574  53.0535 162.2744 0001909  89.9353 270.1855 15.06397416 70042","DECAY_DATE":null,"GP_ID":"193284471","SEMIMAJOR_AXIS":"6925.356","MEAN_MOTION_DDOT":"0.0000000000000","TLE_LINE1":"1 46574U 20070AU  22005.87912871  .00000953  00000-0  82901-4 0  9998","CLASSIFICATION_TYPE":"U","EPHEMERIS_TYPE":"0","COUNTRY_CODE":"US","PERIOD":"95.592","NORAD_CAT_ID":"46574","MEAN_ANOMALY":"270.1855","TIME_SYSTEM":"UTC","INCLINATION":"53.0535","PERIAPSIS":"545.899","RA_OF_ASC_NODE":"162.2744","RCS_SIZE":"LARGE","SITE":"AFETR","APOAPSIS":"548.544","MEAN_MOTION":"15.06397416","ARG_OF_PERICENTER":"89.9353","BSTAR":"0.00008290100000","REF_FRAME":"TEME","CENTER_NAME":"EARTH","LAUNCH_DATE":"2020-10-06","OBJECT_ID":"2020-070AU","OBJECT_NAME":"STARLINK-1660","MEAN_MOTION_DOT":"0.00000953","REV_AT_EPOCH":"7004","MEAN_ELEMENT_THEORY":"SGP4"},{"MEAN_ANOMALY":"267.3421","NORAD_CAT_ID":"46575","TIME_SYSTEM":"UTC","EPHEMERIS_TYPE":"0","PERIOD":"95.592","COUNTRY_CODE":"US","CLASSIFICATION_TYPE":"U","TLE_LINE1":"1 46575U 20070AV  22005.87127412  .00000464  00000-0  50050-4 0  9995","DECAY_DATE":null,"TLE_LINE2":"2 46575  53.0529 137.3040 0002024  92.7800 267.3421 15.06398674 70387","MEAN_MOTION_DDOT":"0.0000000000000","GP_ID":"193285006","SEMIMAJOR_AXIS":"6925.353","FILE":"3265018","ECCENTRICITY":"0.00020240","EPOCH":"2022-01-05T20:54:38.083968","OBJECT_TYPE":"PAYLOAD","ELEMENT_SET_NO":"999","MEAN_ELEMENT_THEORY":"SGP4","REV_AT_EPOCH":"7038","MEAN_MOTION_DOT":"0.00000464","OBJECT_NAME":"STARLINK-1675","OBJECT_ID":"2020-070AV","LAUNCH_DATE":"2020-10-06","REF_FRAME":"TEME","CENTER_NAME":"EARTH","BSTAR":"0.00005005000000","APOAPSIS":"548.619","SITE":"AFETR","ARG_OF_PERICENTER":"92.7800","MEAN_MOTION":"15.06398674","RA_OF_ASC_NODE":"137.3040","PERIAPSIS":"545.816","INCLINATION":"53.0529","RCS_SIZE":"LARGE"},{"FILE":"3265018","ECCENTRICITY":"0.00018570","EPOCH":"2022-01-05T17:44:15.775872","OBJECT_TYPE":"PAYLOAD","ELEMENT_SET_NO":"999","TLE_LINE1":"1 46576U 20070AW  22005.73907148 -.00000866  00000-0 -39250-4 0  9990","TLE_LINE2":"2 46576  53.0539 162.8933 0001857  82.0319 278.0881 15.06394845 70029","DECAY_DATE":null,"GP_ID":"193285256","SEMIMAJOR_AXIS":"6925.364","MEAN_MOTION_DDOT":"0.0000000000000","EPHEMERIS_TYPE":"0","COUNTRY_CODE":"US","PERIOD":"95.592","CLASSIFICATION_TYPE":"U","NORAD_CAT_ID":"46576","MEAN_ANOMALY":"278.0881","TIME_SYSTEM":"UTC","APOAPSIS":"548.515","SITE":"AFETR","MEAN_MOTION":"15.06394845","ARG_OF_PERICENTER":"82.0319","INCLINATION":"53.0539","PERIAPSIS":"545.943","RA_OF_ASC_NODE":"162.8933","RCS_SIZE":"LARGE","REF_FRAME":"TEME","CENTER_NAME":"EARTH","BSTAR":"-0.00003925000000","OBJECT_ID":"2020-070AW","OBJECT_NAME":"STARLINK-1677","LAUNCH_DATE":"2020-10-06","MEAN_ELEMENT_THEORY":"SGP4","MEAN_MOTION_DOT":"-0.00000866","REV_AT_EPOCH":"7002"},{"SITE":"AFETR","APOAPSIS":"548.698","ARG_OF_PERICENTER":"95.8119","MEAN_MOTION":"15.06394854","RA_OF_ASC_NODE":"163.0695","PERIAPSIS":"545.760","INCLINATION":"53.0542","RCS_SIZE":"LARGE","REF_FRAME":"TEME","CENTER_NAME":"EARTH","BSTAR":"-0.00004128600000","OBJECT_NAME":"STARLINK-1682","OBJECT_ID":"2020-070AX","LAUNCH_DATE":"2020-10-06","MEAN_ELEMENT_THEORY":"SGP4","REV_AT_EPOCH":"7001","MEAN_MOTION_DOT":"-0.00000897","ECCENTRICITY":"0.00021210","FILE":"3265018","OBJECT_TYPE":"PAYLOAD","EPOCH":"2022-01-05T16:51:10.889568","ELEMENT_SET_NO":"999","TLE_LINE1":"1 46577U 20070AX  22005.70220937 -.00000897  00000-0 -41286-4 0  9998","DECAY_DATE":null,"TLE_LINE2":"2 46577  53.0542 163.0695 0002121  95.8119 264.3111 15.06394854 70010","GP_ID":"193285505","SEMIMAJOR_AXIS":"6925.364","MEAN_MOTION_DDOT":"0.0000000000000","EPHEMERIS_TYPE":"0","PERIOD":"95.592","COUNTRY_CODE":"US","CLASSIFICATION_TYPE":"U","MEAN_ANOMALY":"264.3111","NORAD_CAT_ID":"46577","TIME_SYSTEM":"UTC"},{"BSTAR":"0.00005898500000","CENTER_NAME":"EARTH","REF_FRAME":"TEME","RCS_SIZE":"LARGE","PERIAPSIS":"545.592","RA_OF_ASC_NODE":"147.2839","INCLINATION":"53.0542","ARG_OF_PERICENTER":"90.1084","MEAN_MOTION":"15.06395049","APOAPSIS":"548.865","SITE":"AFETR","REV_AT_EPOCH":"7025","MEAN_MOTION_DOT":"0.00000597","MEAN_ELEMENT_THEORY":"SGP4","LAUNCH_DATE":"2020-10-06","OBJECT_NAME":"STARLINK-1683","OBJECT_ID":"2020-070AY","SEMIMAJOR_AXIS":"6925.364","GP_ID":"193284971","MEAN_MOTION_DDOT":"0.0000000000000","DECAY_DATE":null,"TLE_LINE2":"2 46578  53.0542 147.2839 0002363  90.1084 270.0176 15.06395049 70250","TLE_LINE1":"1 46578U 20070AY  22005.87772090  .00000597  00000-0  58985-4 0  9998","ELEMENT_SET_NO":"999","OBJECT_TYPE":"PAYLOAD","EPOCH":"2022-01-05T21:03:55.085760","ECCENTRICITY":"0.00023630","FILE":"3265018","TIME_SYSTEM":"UTC","MEAN_ANOMALY":"270.0176","NORAD_CAT_ID":"46578","CLASSIFICATION_TYPE":"U","PERIOD":"95.592","COUNTRY_CODE":"US","EPHEMERIS_TYPE":"0"},{"GP_ID":"193284507","SEMIMAJOR_AXIS":"6925.372","MEAN_MOTION_DDOT":"0.0000000000000","TLE_LINE2":"2 46579  53.0534 162.5372 0002145  95.3832 264.7402 15.06392259 70038","DECAY_DATE":null,"TLE_LINE1":"1 46579U 20070AZ  22005.82016048 -.00000270  00000-0  76782-6 0  9994","ELEMENT_SET_NO":"999","OBJECT_TYPE":"PAYLOAD","EPOCH":"2022-01-05T19:41:01.865472","FILE":"3265018","ECCENTRICITY":"0.00021450","TIME_SYSTEM":"UTC","NORAD_CAT_ID":"46579","MEAN_ANOMALY":"264.7402","CLASSIFICATION_TYPE":"U","COUNTRY_CODE":"US","PERIOD":"95.593","EPHEMERIS_TYPE":"0","BSTAR":"0.00000076782000","CENTER_NAME":"EARTH","REF_FRAME":"TEME","RCS_SIZE":"LARGE","INCLINATION":"53.0534","PERIAPSIS":"545.752","RA_OF_ASC_NODE":"162.5372","MEAN_MOTION":"15.06392259","ARG_OF_PERICENTER":"95.3832","APOAPSIS":"548.723","SITE":"AFETR","MEAN_MOTION_DOT":"-0.00000270","REV_AT_EPOCH":"7003","MEAN_ELEMENT_THEORY":"SGP4","LAUNCH_DATE":"2020-10-06","OBJECT_ID":"2020-070AZ","OBJECT_NAME":"STARLINK-1705"},{"TLE_LINE1":"1 46580U 20070BA  22005.73169744 -.00001425  00000-0 -76729-4 0  9991","TLE_LINE2":"2 46580  53.0537 162.9255 0002489  97.0137 263.1135 15.06395374 70021","DECAY_DATE":null,"SEMIMAJOR_AXIS":"6925.363","GP_ID":"193284757","MEAN_MOTION_DDOT":"0.0000000000000","FILE":"3265018","ECCENTRICITY":"0.00024890","EPOCH":"2022-01-05T17:33:38.658816","OBJECT_TYPE":"PAYLOAD","ELEMENT_SET_NO":"999","NORAD_CAT_ID":"46580","MEAN_ANOMALY":"263.1135","TIME_SYSTEM":"UTC","EPHEMERIS_TYPE":"0","COUNTRY_CODE":"US","PERIOD":"95.592","CLASSIFICATION_TYPE":"U","REF_FRAME":"TEME","CENTER_NAME":"EARTH","BSTAR":"-0.00007672900000","APOAPSIS":"548.951","SITE":"AFETR","MEAN_MOTION":"15.06395374","ARG_OF_PERICENTER":"97.0137","INCLINATION":"53.0537","PERIAPSIS":"545.504","RA_OF_ASC_NODE":"162.9255","RCS_SIZE":"LARGE","MEAN_ELEMENT_THEORY":"SGP4","MEAN_MOTION_DOT":"-0.00001425","REV_AT_EPOCH":"7002","OBJECT_ID":"2020-070BA","OBJECT_NAME":"STARLINK-1708","LAUNCH_DATE":"2020-10-06"},{"TLE_LINE2":"2 46581  53.0561 158.0737 0002301  93.0710 267.0543 15.06397310 70080","DECAY_DATE":null,"GP_ID":"193286005","SEMIMAJOR_AXIS":"6925.357","MEAN_MOTION_DDOT":"0.0000000000000","TLE_LINE1":"1 46581U 20070BB  22005.69713357  .00000880  00000-0  77977-4 0  9990","ELEMENT_SET_NO":"999","ECCENTRICITY":"0.00023010","FILE":"3265018","EPOCH":"2022-01-05T16:43:52.340448","OBJECT_TYPE":"PAYLOAD","NORAD_CAT_ID":"46581","MEAN_ANOMALY":"267.0543","TIME_SYSTEM":"UTC","CLASSIFICATION_TYPE":"U","EPHEMERIS_TYPE":"0","COUNTRY_CODE":"US","PERIOD":"95.592","BSTAR":"0.00007797700000","REF_FRAME":"TEME","CENTER_NAME":"EARTH","INCLINATION":"53.0561","RA_OF_ASC_NODE":"158.0737","PERIAPSIS":"545.628","RCS_SIZE":"LARGE","APOAPSIS":"548.815","SITE":"AFETR","MEAN_MOTION":"15.06397310","ARG_OF_PERICENTER":"93.0710","MEAN_MOTION_DOT":"0.00000880","REV_AT_EPOCH":"7008","MEAN_ELEMENT_THEORY":"SGP4","LAUNCH_DATE":"2020-10-06","OBJECT_ID":"2020-070BB","OBJECT_NAME":"STARLINK-1712"},{"OBJECT_NAME":"STARLINK-1728","OBJECT_ID":"2020-070BC","LAUNCH_DATE":"2020-10-06","MEAN_ELEMENT_THEORY":"SGP4","REV_AT_EPOCH":"7008","MEAN_MOTION_DOT":"0.00001128","SITE":"AFETR","APOAPSIS":"548.776","ARG_OF_PERICENTER":"96.7810","MEAN_MOTION":"15.06403722","PERIAPSIS":"545.628","RA_OF_ASC_NODE":"158.1005","INCLINATION":"53.0568","RCS_SIZE":"LARGE","REF_FRAME":"TEME","CENTER_NAME":"EARTH","BSTAR":"0.00009465600000","EPHEMERIS_TYPE":"0","PERIOD":"95.592","COUNTRY_CODE":"US","CLASSIFICATION_TYPE":"U","MEAN_ANOMALY":"263.3438","NORAD_CAT_ID":"46582","TIME_SYSTEM":"UTC","ECCENTRICITY":"0.00022730","FILE":"3265018","OBJECT_TYPE":"PAYLOAD","EPOCH":"2022-01-05T16:22:38.577216","ELEMENT_SET_NO":"999","TLE_LINE1":"1 46582U 20070BC  22005.68239094  .00001128  00000-0  94656-4 0  9990","DECAY_DATE":null,"TLE_LINE2":"2 46582  53.0568 158.1005 0002273  96.7810 263.3438 15.06403722 70083","SEMIMAJOR_AXIS":"6925.337","GP_ID":"193284472","MEAN_MOTION_DDOT":"0.0000000000000"},{"MEAN_ELEMENT_THEORY":"SGP4","MEAN_MOTION_DOT":"0.00000861","REV_AT_EPOCH":"6980","OBJECT_ID":"2020-070BD","OBJECT_NAME":"STARLINK-1729","LAUNCH_DATE":"2020-10-06","REF_FRAME":"TEME","CENTER_NAME":"EARTH","BSTAR":"0.00007671800000","SITE":"AFETR","APOAPSIS":"548.796","MEAN_MOTION":"15.06386250","ARG_OF_PERICENTER":"88.8827","INCLINATION":"53.0521","PERIAPSIS":"545.715","RA_OF_ASC_NODE":"177.9326","RCS_SIZE":"LARGE","NORAD_CAT_ID":"46583","MEAN_ANOMALY":"271.2417","TIME_SYSTEM":"UTC","EPHEMERIS_TYPE":"0","COUNTRY_CODE":"US","PERIOD":"95.593","CLASSIFICATION_TYPE":"U","TLE_LINE1":"1 46583U 20070BD  22005.73216800  .00000861  00000-0  76718-4 0  9999","TLE_LINE2":"2 46583  53.0521 177.9326 0002224  88.8827 271.2417 15.06386250 69803","DECAY_DATE":null,"GP_ID":"193285007","SEMIMAJOR_AXIS":"6925.391","MEAN_MOTION_DDOT":"0.0000000000000","ECCENTRICITY":"0.00022240","FILE":"3265018","OBJECT_TYPE":"PAYLOAD","EPOCH":"2022-01-05T17:34:19.315200","ELEMENT_SET_NO":"999"}];
